NORAD_CAT_ID,OBJECT_NAME,OBJECT_TYPE,EPOCH,MEAN_MOTION,ECCENTRICITY,INCLINATION,RA_OF_ASC_NODE,ARG_OF_PERICENTER,MEAN_ANOMALY,BSTAR,MEAN_MOTION_DOT,MEAN_MOTION_DDOT,TLE_LINE0,TLE_LINE1,TLE_LINE2,SEMIMAJOR_AXIS,PERIOD,APOGEE,PERIGEE,DECAYED
55658.0,STARLINK-5307,PAYLOAD,2024-07-23 04:30:44,14.98337304,0.0002991,69.9998,243.2896,271.1432,88.9385,0.00020678,2.376e-05,0.0,0 STARLINK-5307,1 55658U 23021AG  24205.18801696  .00002376  00000-0  20678-3 0  9993,2 55658  69.9998 243.2896 0002991 271.1432  88.9385 14.98337304 79443,6950.17,96.107,574.114,569.957,0.0
55658.0,STARLINK-5307,PAYLOAD,2024-07-23 09:19:08,14.98332154,0.0003168,69.9993,242.7837,269.2335,90.8461,3.4777e-05,3.22e-06,0.0,0 STARLINK-5307,1 55658U 23021AG  24205.38829769  .00000322  00000-0  34777-4 0  9991,2 55658  69.9993 242.7837 0003168 269.2335  90.8461 14.98332154 79775,6950.186,96.107,574.253,569.849,0.0
55658.0,STARLINK-5307,PAYLOAD,2024-07-24 04:32:45,14.98332058,0.0003477,69.9982,240.7628,273.3341,86.742,-9.8882e-05,-1.273e-05,0.0,0 STARLINK-5307,1 55658U 23021AG  24206.18941933 -.00001273  00000-0 -98882-4 0  9993,2 55658  69.9982 240.7628 0003477 273.3341  86.7420 14.98332058 79597,6950.187,96.107,574.468,569.635,0.0
55658.0,STARLINK-5307,PAYLOAD,2024-07-24 09:21:10,14.98330029,0.0003308,69.9988,240.2582,271.0215,89.0565,-0.00010506,-1.346e-05,0.0,0 STARLINK-5307,1 55658U 23021AG  24206.38970039 -.00001346  00000-0 -10506-3 0  9991,2 55658  69.9988 240.2582 0003308 271.0215  89.0565 14.98330029 79924,6950.193,96.107,574.357,569.759,0.0
55658.0,STARLINK-5307,PAYLOAD,2024-07-25 04:34:47,14.98329186,0.0003336,69.998,238.2383,271.4981,88.5796,0.00019979,2.292e-05,0.0,0 STARLINK-5307,1 55658U 23021AG  24207.19082234  .00002292  00000-0  19979-3 0  9994,2 55658  69.9980 238.2383 0003336 271.4981  88.5796 14.98329186 79749,6950.195,96.107,574.379,569.742,0.0
55658.0,STARLINK-5307,PAYLOAD,2024-07-25 06:10:55,14.98329891,0.0003303,69.9981,238.07,271.4113,88.6667,0.00020698,2.377e-05,0.0,0 STARLINK-5307,1 55658U 23021AG  24207.25758211  .00002377  00000-0  20698-3 0  9990,2 55658  69.9981 238.0700 0003303 271.4113  88.6667 14.98329891 80059,6950.193,96.107,574.354,569.763,0.0
55658.0,STARLINK-5307,PAYLOAD,2024-07-25 09:23:11,14.98330255,0.0003253,69.9983,237.7337,270.8953,89.1834,0.00020838,2.394e-05,0.0,0 STARLINK-5307,1 55658U 23021AG  24207.39110248  .00002394  00000-0  20838-3 0  9992,2 55658  69.9983 237.7337 0003253 270.8953  89.1834 14.98330255 80072,6950.192,96.107,574.318,569.796,0.0
55658.0,STARLINK-5307,PAYLOAD,2024-07-26 04:36:48,14.98331146,0.000331,69.9983,235.7139,269.9215,90.1565,0.00018993,2.174e-05,0.0,0 STARLINK-5307,1 55658U 23021AG  24208.19222240  .00002174  00000-0  18993-3 0  9992,2 55658  69.9983 235.7139 0003310 269.9215  90.1565 14.98331146 79895,6950.189,96.107,574.355,569.754,0.0
55658.0,STARLINK-5307,PAYLOAD,2024-07-26 09:25:12,14.9832607,0.0003424,69.9981,235.209,269.052,91.0247,0.00010753,1.19e-05,0.0,0 STARLINK-5307,1 55658U 23021AG  24208.39250694  .00001190  00000-0  10753-3 0  9991,2 55658  69.9981 235.2090 0003424 269.0520  91.0247 14.98326070 80226,6950.205,96.107,574.45,569.69,0.0
55658.0,STARLINK-5307,PAYLOAD,2024-07-26 19:02:01,14.98325246,0.00034,69.9981,234.199,266.9969,93.0801,7.2923e-05,7.77e-06,0.0,0 STARLINK-5307,1 55658U 23021AG  24208.79306860  .00000777  00000-0  72923-4 0  9990,2 55658  69.9981 234.1990 0003400 266.9969  93.0801 14.98325246 79983,6950.208,96.107,574.436,569.71,0.0
55658.0,STARLINK-5307,PAYLOAD,2024-07-27 06:14:57,14.98328074,0.0003414,69.998,233.0206,267.0603,93.0165,3.2302e-05,2.92e-06,0.0,0 STARLINK-5307,1 55658U 23021AG  24209.26038810  .00000292  00000-0  32302-4 0  9999,2 55658  69.9980 233.0206 0003414 267.0603  93.0165 14.98328074 80350,6950.199,96.107,574.437,569.691,0.0
55658.0,STARLINK-5307,PAYLOAD,2024-07-27 11:03:21,14.98330708,0.0003372,69.9981,232.5156,266.9938,93.0836,5.3844e-05,5.49e-06,0.0,0 STARLINK-5307,1 55658U 23021AG  24209.46066563  .00000549  00000-0  53844-4 0  9996,2 55658  69.9981 232.5156 0003372 266.9938  93.0836 14.98330708 80386,6950.191,96.107,574.399,569.712,0.0
55658.0,STARLINK-5307,PAYLOAD,2024-07-28 04:40:50,14.98331046,0.0003427,69.9978,230.664,266.5748,93.502,8.2969e-05,8.97e-06,0.0,0 STARLINK-5307,1 55658U 23021AG  24210.19502500  .00000897  00000-0  82969-4 0  9990,2 55658  69.9978 230.6640 0003427 266.5748  93.5020 14.98331046 80190,6950.19,96.107,574.436,569.673,0.0
55658.0,STARLINK-5307,PAYLOAD,2024-07-28 11:05:22,14.98331385,0.0003311,69.9981,229.9912,266.0644,94.0136,0.00014354,1.62e-05,0.0,0 STARLINK-5307,1 55658U 23021AG  24210.46206395  .00001620  00000-0  14354-3 0  9990,2 55658  69.9981 229.9912 0003311 266.0644  94.0136 14.98331385 80537,6950.189,96.107,574.355,569.752,0.0
55658.0,STARLINK-5307,PAYLOAD,2024-07-29 04:42:50,14.98336564,0.0003268,69.9982,228.1389,266.8327,93.2458,0.00017767,2.028e-05,0.0,0 STARLINK-5307,1 55658U 23021AG  24211.19642051  .00002028  00000-0  17767-3 0  9998,2 55658  69.9982 228.1389 0003268 266.8327  93.2458 14.98336564 80345,6950.173,96.107,574.309,569.766,0.0
55658.0,STARLINK-5307,PAYLOAD,2024-07-29 11:07:22,14.98339973,0.0003277,69.9983,227.4655,267.1688,92.9096,0.0001797,2.052e-05,0.0,0 STARLINK-5307,1 55658U 23021AG  24211.46345825  .00002052  00000-0  17970-3 0  9990,2 55658  69.9983 227.4655 0003277 267.1688  92.9096 14.98339973 80686,6950.162,96.106,574.305,569.749,0.0
55658.0,STARLINK-5307,PAYLOAD,2024-07-30 04:44:51,14.98337425,0.0003212,69.9985,225.6143,266.3672,93.712,0.00011082,1.23e-05,0.0,0 STARLINK-5307,1 55658U 23021AG  24212.19781861  .00001230  00000-0  11082-3 0  9990,2 55658  69.9985 225.6143 0003212 266.3672  93.7120 14.98337425 80499,6950.17,96.107,574.267,569.803,0.0
55658.0,STARLINK-5307,PAYLOAD,2024-07-30 09:33:15,14.98336465,0.0003224,69.9985,225.1094,266.2928,93.7862,8.887e-05,9.68e-06,0.0,0 STARLINK-5307,1 55658U 23021AG  24212.39809877  .00000968  00000-0  88870-4 0  9997,2 55658  69.9985 225.1094 0003224 266.2928  93.7862 14.98336465 80828,6950.173,96.107,574.279,569.797,0.0
55658.0,STARLINK-5307,PAYLOAD,2024-07-30 17:33:56,14.98336428,0.0003208,69.9986,224.2677,266.7799,93.2993,6.7815e-05,7.16e-06,0.0,0 STARLINK-5307,1 55658U 23021AG  24212.73189815  .00000716  00000-0  67815-4 0  9995,2 55658  69.9986 224.2677 0003208 266.7799  93.2993 14.98336428 80873,6950.173,96.107,574.268,569.808,0.0
55658.0,STARLINK-5307,PAYLOAD,2024-07-31 11:11:24,14.98336158,0.0003212,69.9985,222.416,266.9797,93.0995,1.8276e-05,1.25e-06,0.0,0 STARLINK-5307,1 55658U 23021AG  24213.46625611  .00000125  00000-0  18276-4 0  9996,2 55658  69.9985 222.4160 0003212 266.9797  93.0995 14.98336158 80986,6950.174,96.107,574.271,569.806,0.0
55658.0,STARLINK-5307,PAYLOAD,2024-07-31 17:35:56,14.98334173,0.0003204,69.9986,221.7427,267.4203,92.6589,1.7062e-05,1.11e-06,0.0,0 STARLINK-5307,1 55658U 23021AG  24213.73329644  .00000111  00000-0  17062-4 0  9990,2 55658  69.9986 221.7427 0003204 267.4203  92.6589 14.98334173 81029,6950.18,96.107,574.272,569.818,0.0
55658.0,STARLINK-5307,PAYLOAD,2024-08-01 04:48:53,14.98332487,0.000321,69.9986,220.5643,268.1935,91.8856,4.7534e-05,4.74e-06,0.0,0 STARLINK-5307,1 55658U 23021AG  24214.20061623  .00000474  00000-0  47534-4 0  9992,2 55658  69.9986 220.5643 0003210 268.1935  91.8856 14.98332487 80790,6950.185,96.107,574.281,569.819,0.0
55658.0,STARLINK-5307,PAYLOAD,2024-08-01 09:37:17,14.98333406,0.0003195,69.9986,220.0593,268.516,91.5633,5.4851e-05,5.62e-06,0.0,0 STARLINK-5307,1 55658U 23021AG  24214.40089511  .00000562  00000-0  54851-4 0  9998,2 55658  69.9986 220.0593 0003195 268.5160  91.5633 14.98333406 81125,6950.182,96.107,574.268,569.827,0.0
55658.0,STARLINK-5307,PAYLOAD,2024-08-01 17:37:57,14.9833199,0.0003186,69.9986,219.2177,268.7078,91.3716,5.4498e-05,5.57e-06,0.0,0 STARLINK-5307,1 55658U 23021AG  24214.73469587  .00000557  00000-0  54498-4 0  9990,2 55658  69.9986 219.2177 0003186 268.7078  91.3716 14.98331990 81174,6950.187,96.107,574.266,569.837,0.0
55658.0,STARLINK-5307,PAYLOAD,2024-08-02 04:50:54,14.98331796,0.0003192,69.9986,218.0395,268.6901,91.3892,4.4273e-05,4.35e-06,0.0,0 STARLINK-5307,1 55658U 23021AG  24215.20201587  .00000435  00000-0  44273-4 0  9992,2 55658  69.9986 218.0395 0003192 268.6901  91.3892 14.98331796 80947,6950.187,96.107,574.271,569.834,0.0
55658.0,STARLINK-5307,PAYLOAD,2024-08-02 09:39:18,14.98332121,0.0003194,69.9986,217.5345,268.9304,91.1489,5.6992e-05,5.87e-06,0.0,0 STARLINK-5307,1 55658U 23021AG  24215.40229517  .00000587  00000-0  56992-4 0  9996,2 55658  69.9986 217.5345 0003194 268.9304  91.1489 14.98332121 81278,6950.186,96.107,574.271,569.831,0.0
55658.0,STARLINK-5307,PAYLOAD,2024-08-02 17:39:58,14.983323,0.0003209,69.9986,216.6929,269.2615,90.8177,6.6869e-05,7.05e-06,0.0,0 STARLINK-5307,1 55658U 23021AG  24215.73609475  .00000705  00000-0  66869-4 0  9993,2 55658  69.9986 216.6929 0003209 269.2615  90.8177 14.98332300 81327,6950.186,96.107,574.281,569.82,0.0
55658.0,STARLINK-5307,PAYLOAD,2024-08-03 04:52:55,14.98325181,0.0003183,69.9985,215.5146,268.9211,91.1583,-9.4568e-06,-2.06e-06,0.0,0 STARLINK-5307,1 55658U 23021AG  24216.20342172 -.00000206  00000-0 -94568-5 0  9990,2 55658  69.9985 215.5146 0003183 268.9211  91.1583 14.98325181 81092,6950.208,96.107,574.285,569.861,0.0
55658.0,STARLINK-5307,PAYLOAD,2024-08-03 09:41:19,14.98324428,0.0003199,69.9986,215.0098,270.027,90.0522,-3.2822e-05,-4.85e-06,0.0,0 STARLINK-5307,1 55658U 23021AG  24216.40370338 -.00000485  00000-0 -32822-4 0  9990,2 55658  69.9986 215.0098 0003199 270.0270  90.0522 14.98324428 81421,6950.21,96.107,574.298,569.852,0.0
55658.0,STARLINK-5307,PAYLOAD,2024-08-03 17:42:00,14.98325003,0.0003204,69.9985,214.1678,270.0612,90.018,-1.1819e-05,-2.34e-06,0.0,0 STARLINK-5307,1 55658U 23021AG  24216.73750359 -.00000234  00000-0 -11819-4 0  9996,2 55658  69.9985 214.1678 0003204 270.0612  90.0180 14.98325003 81476,6950.208,96.107,574.3,569.846,0.0
